[{"OBJECT_NAME":"SHUNTIAN ","OBJECT_ID":"2019-093H","EPOCH":"2026-03-09T22:37:28.644960","MEAN_MOTION":14.94616116,"ECCENTRICITY":0.00128401,"INCLINATION":97.8015,"RA_OF_ASC_NODE":157.6565,"ARG_OF_PERICENTER":41.7431,"MEAN_ANOMALY":318.4767,"EPHEMERIS_TYPE":0,"CLASSIFICATION_TYPE":"U","NORAD_CAT_ID":44886,"ELEMENT_SET_NO":999,"REV_AT_EPOCH":33735,"BSTAR":0.00022413276,"MEAN_MOTION_DOT":2.372e-5,"MEAN_MOTION_DDOT":0},{"OBJECT_NAME":"STARLINK-5316","OBJECT_ID":"2023-010AN","EPOCH":"2026-03-09T22:49:06.160800","MEAN_MOTION":14.98327455,"ECCENTRICITY":0.00028885,"INCLINATION":70.0012,"RA_OF_ASC_NODE":23.987,"ARG_OF_PERICENTER":269.3873,"MEAN_ANOMALY":90.6955,"EPHEMERIS_TYPE":0,"CLASSIFICATION_TYPE":"U","NORAD_CAT_ID":55305,"ELEMENT_SET_NO":999,"REV_AT_EPOCH":17331,"BSTAR":-3.714607e-6,"MEAN_MOTION_DOT":-1.37e-6,"MEAN_MOTION_DDOT":0}]
